[{"OBJECT_NAME":"ION SCV-004","OBJECT_ID":"2022-002K","EPOCH":"2026-03-09T16:32:03.244416","MEAN_MOTION":15.29369331,"ECCENTRICITY":0.00072157,"INCLINATION":97.2961,"RA_OF_ASC_NODE":128.2294,"ARG_OF_PERICENTER":1.6783,"MEAN_ANOMALY":358.448,"EPHEMERIS_TYPE":0,"CLASSIFICATION_TYPE":"U","NORAD_CAT_ID":50993,"ELEMENT_SET_NO":999,"REV_AT_EPOCH":23008,"BSTAR":0.00023198467,"MEAN_MOTION_DOT":6.538e-5,"MEAN_MOTION_DDOT":0},{"OBJECT_NAME":"STARLINK-30612","OBJECT_ID":"2023-161K","EPOCH":"2026-03-09T12:00:19.636128","MEAN_MOTION":15.30186035,"ECCENTRICITY":9.479e-5,"INCLINATION":53.1594,"RA_OF_ASC_NODE":153.3961,"ARG_OF_PERICENTER":86.5768,"MEAN_ANOMALY":273.5341,"EPHEMERIS_TYPE":0,"CLASSIFICATION_TYPE":"U","NORAD_CAT_ID":58106,"ELEMENT_SET_NO":999,"REV_AT_EPOCH":13457,"BSTAR":1.3796287e-5,"MEAN_MOTION_DOT":5.0e-7,"MEAN_MOTION_DDOT":0}]
